NUVIEW BRAVO            
1 62457U 24252D   26169.52199986 -.00000221  00000+0  00000+0 0  9996
2 62457   0.0712 150.7092 0002061 331.4198 249.4262  1.00274728  3809
THURAYA-4               
1 62483U 25001A   26169.04821201  .00000133  00000+0  00000+0 0  9998
2 62483   0.0270  66.4492 0000193 212.2121  49.2922  1.00272366  4187
SHIJIAN-25 (SJ-25)      
1 62485U 25002A   26168.80679181 -.00000358  00000+0  00000+0 0  9992
2 62485   5.1153  61.1628 0052241 173.4299  89.1640  1.00264537  5365
TJS-14                  
1 62804U 25017A   26169.82721360  .00000110  00000+0  00000+0 0  9998
2 62804   0.7779 295.7662 0000905 285.1415   2.3654  1.00275207  5288
SPAINSAT NG I           
1 62852U 25021A   26169.54418663  .00000145  00000+0  00000+0 0  9992
2 62852   0.0184   1.2360 0000168 289.9037 200.5362  1.00270022  4009
QZS-6 (MICHIBIKI-6)     
1 62876U 25023A   26169.84152277 -.00000239  00000+0  00000+0 0  9994
2 62876   0.0577  72.2588 0001813  20.0070 208.2716  1.00270318  4961
ZHONGXING-10R           
1 63075U 25036A   26169.81674056 -.00000358  00000+0  00000+0 0  9993
2 63075   0.0224 242.0105 0003525 257.3963 172.2074  1.00271120  4972
TJS-15                  
1 63157U 25045A   26168.79121557 -.00000270  00000+0  00000+0 0  9996
2 63157   0.2876  85.4798 0004644 297.2567 262.5358  1.00271170  4761
TIANLIAN 2-04           
1 63361U 25062A   26169.83944277 -.00000141  00000+0  00000+0 0  9997
2 63361   4.3695 274.4171 0031639  10.3965   4.5159  1.00271867  4628
TJS-16                  
1 63397U 25064A   26168.71475683 -.00000111  00000+0  00000+0 0  9991
2 63397   1.1003  81.4533 0003334 290.0433 312.3891  1.00271394  4393
TJS-17                  
1 63524U 25073A   26168.71553683 -.00000075  00000+0  00000+0 0  9999
2 63524   1.0661  82.6888 0002062 297.6727 307.7357  1.00272176  4299
TIANLIAN 2-05           
1 63662U 25084A   26169.73994125  .00000118  00000+0  00000+0 0  9994
2 63662   4.4464 279.8208 0003138 147.8637 126.0106  1.00271351  4396
TJS-19                  
1 63924U 25097A   26168.78218750 -.00000280  00000+0  00000+0 0  9997
2 63924   3.2851 317.4623 0002910 249.7750 121.5337  1.00276123  4151
CHINASAT 3B             
1 64062U 25106A   26169.62197517 -.00000051  00000+0  00000+0 0  9999
2 64062   0.0297 110.9581 0003026  13.9280 173.1884  1.00271660  4073
SXM-10                  
1 64290U 25122A   26169.51541316 -.00000023  00000+0  00000+0 0  9997
2 64290   0.0231  37.1467 0001753 324.7997 334.1828  1.00271009  3691
COSMOS 2589             
1 64467U 25131A   26168.79103211 -.00000296  00000+0  00000+0 0  9992
2 64467   0.0368  81.6800 0000163  32.8632 174.2407  1.00272159  3569
CHINASAT 9C             
1 64470U 25132A   26169.80095882 -.00000253  00000+0  00000+0 0  9997
2 64470   0.0149  67.7811 0002698  16.9223 202.8453  1.00268755  4164
MTG-S1                  
1 64723U 25143A   26168.96740449 -.00000037  00000+0  00000+0 0  9992
2 64723   0.6022 339.1600 0000787  17.8158 254.0253  1.00270537  3423
DROR 1                  
1 64784U 25148A   26169.75151199 -.00000041  00000+0  00000+0 0  9995
2 64784   0.0396  69.2374 0002632 319.7624 144.5208  1.00270914  3310
SHIYAN-29               
1 65486U 25196A   26169.66871259 -.00000285  00000+0  00000+0 0  9994
2 65486  28.8232  18.5168 0012598 177.4218  46.3156  1.00284927  2897
NUSANTARA LIMA (NUSANT*)
1 65588U 25205A   26168.86667954 -.00000363  00000+0  00000+0 0  9991
2 65588   0.0181 103.4558 0000109  70.6404 156.8713  1.00270924  2728
TJS-20                  
1 66142U 25238A   26169.77521700  .00000017  00000+0  00000+0 0  9998
2 66142   5.4652 299.5543 0004619 164.2783 144.7227  1.00275222  2348
CMS-03 (GSAT-7R)        
1 66311U 25249B   26169.79981285 -.00000083  00000+0  00000+0 0  9992
2 66311   0.0137  47.2789 0001610  34.5767 187.0933  1.00271215  2368
VIASAT-3 F2             
1 66454U 25261A   26169.80793733 -.00000240  00000+0  00000+0 0  9990
2 66454   0.0415 171.8664 0000028 313.8497 353.2075  1.00270499  2813
SHIJIAN-28 (SJ-28)      
1 66549U 25277A   26169.77543718 -.00000366  00000+0  00000+0 0  9993
2 66549   4.5333 272.1102 0001231  38.8542 351.9504  1.00276679  2177
TJS-22                  
1 66990U 25290A   26168.87437444 -.00000012  00000+0  00000+0 0  9994
2 66990   1.5272 286.5863 0001930 330.1978  30.6093  1.00273727  2036
TJS-23                  
1 67226U 25306A   26169.59784025  .00000012  00000+0  00000+0 0  9994
2 67226   5.5850 297.4791 0005414 171.6767 188.4971  1.00275797  1902
FENGYUN 4C              
1 67246U 25312A   26169.79154697 -.00000329  00000+0  00000+0 0  9993
2 67246   0.0467 138.8083 0000364  71.9030 114.2657  1.00271531  1791
SHIJIAN-29A (SJ-29A)    
1 67302U 25315A   26169.64518291 -.00000074  00000+0  00000+0 0  9994
2 67302   3.4023  95.0696 0003188  24.5888  92.6665  1.00269922  1637
SHIJIAN-29B (SJ-29B)    
1 67403U 25315C   26169.64455618 -.00000075  00000+0  00000+0 0  9990
2 67403   3.4013  95.0618 0003959  34.6791  82.3985  1.00270301  1705
ELEKTRO-L 5             
1 67756U 26028A   26169.04907099 -.00000103  00000+0  00000+0 0  9994
2 67756   0.2501 311.9136 0001747 179.9993 228.0916  1.00272307  1260
JAM-E JAM 1             
1 67757U 26028B   26169.75135425  .00000149  00000+0  00000+0 0  9998
2 67757   0.2559 302.9354 0001138 294.3106 334.2112  1.00276493  1132
